{"type":"FeatureCollection","name":"pescador I","data_type":"geomorphic","crs":{"type":"name","properties":{"name":"urn:ogc:def:crs:OGC:1.3:CRS84","license":"CC BY 4.0"}},"features":[{"type":"Feature","properties":{"class":"Sheltered Reef Slope"},"geometry":{"type":"Polygon","coordinates":[[[123.343180086,9.924317764],[123.343269918,9.924317764],[123.343269918,9.924227933],[123.344123317,9.924227933],[123.344123317,9.924183017],[123.344168233,9.924183017],[123.344168233,9.923778775],[123.344258064,9.923778775],[123.344258064,9.923688944],[123.344213149,9.923688944],[123.344168233,9.923688944],[123.344168233,9.923509281],[123.344258064,9.923509281],[123.344258064,9.923329618],[123.344168233,9.923329618],[123.344168233,9.923419449],[123.34398857,9.923419449],[123.34398857,9.923599112],[123.343898738,9.923599112],[123.343898738,9.923868607],[123.343808907,9.923868607],[123.343808907,9.923958438],[123.343090255,9.923958438],[123.343090255,9.923778775],[123.343045339,9.923778775],[123.343000423,9.923778775],[123.343000423,9.923688944],[123.342955507,9.923688944],[123.342910591,9.923688944],[123.342910591,9.923599112],[123.342865676,9.923599112],[123.34282076,9.923599112],[123.34282076,9.923419449],[123.342551265,9.923419449],[123.342551265,9.923958438],[123.342596181,9.923958438],[123.342641097,9.923958438],[123.342641097,9.92404827],[123.342775844,9.92404827],[123.34282076,9.92404827],[123.34282076,9.924227933],[123.34313517,9.924227933],[123.343180086,9.924227933],[123.343180086,9.924317764]]]}},{"type":"Feature","properties":{"class":"Sheltered Reef Slope"},"geometry":{"type":"Polygon","coordinates":[[[123.343090255,9.922071976],[123.343943654,9.922071976],[123.343943654,9.921982145],[123.343898738,9.921982145],[123.343898738,9.921937229],[123.343853822,9.921937229],[123.343853822,9.921892313],[123.343808907,9.921892313],[123.343808907,9.921847397],[123.343763991,9.921847397],[123.343719075,9.921847397],[123.343719075,9.921802482],[123.343314833,9.921802482],[123.343314833,9.921847397],[123.343180086,9.921847397],[123.343180086,9.921892313],[123.34313517,9.921892313],[123.34313517,9.921937229],[123.343090255,9.921937229],[123.343090255,9.922071976]]]}}]}